start=new Date('2021-09-13T00:00:00.000Z').valueOf();
sats=[{"INCLINATION":"53.0480","DECAY_DATE":null,"PERIAPSIS":"347.147","EPHEMERIS_TYPE":"0","MEAN_ANOMALY":"19.3263","ARG_OF_PERICENTER":"3.3148","LAUNCH_DATE":"2021-05-04","OBJECT_ID":"2021-038BL","MEAN_MOTION_DDOT":"0.0000000000000","FILE":"3114132","MEAN_ELEMENT_THEORY":"SGP4","TLE_LINE1":"1 48411U 21038BL  21255.91667824  .00024363  00000-0  17771-3 0  9994","RCS_SIZE":"LARGE","REV_AT_EPOCH":"2124","OBJECT_NAME":"STARLINK-2505","SITE":"AFETR","PERIOD":"91.535","APOAPSIS":"352.585","CENTER_NAME":"EARTH","SEMIMAJOR_AXIS":"6728.001","NORAD_CAT_ID":"48411","ECCENTRICITY":"0.00040410","RA_OF_ASC_NODE":"112.4842","OBJECT_TYPE":"PAYLOAD","EPOCH":"2021-09-12T22:00:00.999936","GP_ID":"184577403","CLASSIFICATION_TYPE":"U","TLE_LINE2":"2 48411  53.0480 112.4842 0004041   3.3148  19.3263 15.73162874 21247","TIME_SYSTEM":"UTC","REF_FRAME":"TEME","ELEMENT_SET_NO":"999","COUNTRY_CODE":"US","MEAN_MOTION_DOT":"0.00024363","BSTAR":"0.00017771000000","MEAN_MOTION":"15.73162874"},{"BSTAR":"0.00017773000000","MEAN_MOTION":"15.73149263","MEAN_MOTION_DOT":"0.00024352","COUNTRY_CODE":"US","REF_FRAME":"TEME","ELEMENT_SET_NO":"999","TLE_LINE2":"2 48412  53.0481 112.4863 0004068   6.2045  17.0494 15.73149263 21247","TIME_SYSTEM":"UTC","CLASSIFICATION_TYPE":"U","GP_ID":"184577407","ECCENTRICITY":"0.00040680","EPOCH":"2021-09-12T22:00:00.999936","OBJECT_TYPE":"PAYLOAD","RA_OF_ASC_NODE":"112.4863","CENTER_NAME":"EARTH","NORAD_CAT_ID":"48412","SEMIMAJOR_AXIS":"6728.040","APOAPSIS":"352.642","PERIOD":"91.536","SITE":"AFETR","REV_AT_EPOCH":"2124","OBJECT_NAME":"STARLINK-2581","MEAN_ELEMENT_THEORY":"SGP4","TLE_LINE1":"1 48412U 21038BM  21255.91667824  .00024352  00000-0  17773-3 0  9995","RCS_SIZE":"LARGE","FILE":"3114132","OBJECT_ID":"2021-038BM","MEAN_MOTION_DDOT":"0.0000000000000","ARG_OF_PERICENTER":"6.2045","LAUNCH_DATE":"2021-05-04","MEAN_ANOMALY":"17.0494","DECAY_DATE":null,"EPHEMERIS_TYPE":"0","PERIAPSIS":"347.168","INCLINATION":"53.0481"},{"RA_OF_ASC_NODE":"343.3456","OBJECT_TYPE":"PAYLOAD","EPOCH":"2021-09-12T22:00:00.999936","ECCENTRICITY":"0.00009070","GP_ID":"184601665","APOAPSIS":"547.808","SEMIMAJOR_AXIS":"6925.315","NORAD_CAT_ID":"48428","CENTER_NAME":"EARTH","MEAN_MOTION_DOT":"-0.00031723","COUNTRY_CODE":"US","MEAN_MOTION":"15.06410931","BSTAR":"-0.00211970000000","CLASSIFICATION_TYPE":"U","TLE_LINE2":"2 48428  53.0548 343.3456 0000907 120.4340  33.0189 15.06410931  3592","TIME_SYSTEM":"UTC","ELEMENT_SET_NO":"999","REF_FRAME":"TEME","MEAN_ANOMALY":"33.0189","ARG_OF_PERICENTER":"120.4340","LAUNCH_DATE":"2021-05-09","MEAN_MOTION_DDOT":"0.0000000000000","OBJECT_ID":"2021-040A","INCLINATION":"53.0548","PERIAPSIS":"546.552","EPHEMERIS_TYPE":"0","DECAY_DATE":null,"OBJECT_NAME":"STARLINK-2461","REV_AT_EPOCH":"359","SITE":"AFETR","PERIOD":"95.591","FILE":"3114195","RCS_SIZE":"LARGE","MEAN_ELEMENT_THEORY":"SGP4","TLE_LINE1":"1 48428U 21040A   21255.91667824 -.00031723  00000-0 -21197-2 0  9991"},{"FILE":"3114195","TLE_LINE1":"1 48429U 21040B   21255.91667824 -.00855498  00000-0 -22715-1 0  9991","MEAN_ELEMENT_THEORY":"SGP4","RCS_SIZE":"LARGE","REV_AT_EPOCH":"367","OBJECT_NAME":"STARLINK-2749","SITE":"AFETR","PERIOD":"93.494","INCLINATION":"53.0481","DECAY_DATE":null,"EPHEMERIS_TYPE":"0","PERIAPSIS":"444.606","MEAN_ANOMALY":"180.6244","LAUNCH_DATE":"2021-05-09","ARG_OF_PERICENTER":"75.9041","OBJECT_ID":"2021-040B","MEAN_MOTION_DDOT":"0.0000000000000","CLASSIFICATION_TYPE":"U","TLE_LINE2":"2 48429  53.0481 315.6765 0001317  75.9041 180.6244 15.40205204  3675","TIME_SYSTEM":"UTC","REF_FRAME":"TEME","ELEMENT_SET_NO":"999","MEAN_MOTION_DOT":"-0.00855498","COUNTRY_CODE":"US","BSTAR":"-0.02271500000000","MEAN_MOTION":"15.40205204","APOAPSIS":"446.404","CENTER_NAME":"EARTH","SEMIMAJOR_AXIS":"6823.640","NORAD_CAT_ID":"48429","ECCENTRICITY":"0.00013170","OBJECT_TYPE":"PAYLOAD","RA_OF_ASC_NODE":"315.6765","EPOCH":"2021-09-12T22:00:00.999936","GP_ID":"184601248"},{"SITE":"AFETR","PERIOD":"93.468","REV_AT_EPOCH":"2122","OBJECT_NAME":"STARLINK-2729","MEAN_ELEMENT_THEORY":"SGP4","TLE_LINE1":"1 48430U 21040C   21255.91667824 -.00820075  00000-0 -21393-1 0  9997","RCS_SIZE":"LARGE","FILE":"3114143","OBJECT_ID":"2021-040C","MEAN_MOTION_DDOT":"0.0000000000000","MEAN_ANOMALY":"245.0118","LAUNCH_DATE":"2021-05-09","ARG_OF_PERICENTER":"51.2277","DECAY_DATE":null,"PERIAPSIS":"443.195","EPHEMERIS_TYPE":"0","INCLINATION":"53.0471","BSTAR":"-0.02139300000000","MEAN_MOTION":"15.40633801","COUNTRY_CODE":"US","MEAN_MOTION_DOT":"-0.00820075","REF_FRAME":"TEME","ELEMENT_SET_NO":"999","CLASSIFICATION_TYPE":"U","TLE_LINE2":"2 48430  53.0471 315.7674 0001531  51.2277 245.0118 15.40633801 21227","TIME_SYSTEM":"UTC","GP_ID":"184577509","ECCENTRICITY":"0.00015310","OBJECT_TYPE":"PAYLOAD","RA_OF_ASC_NODE":"315.7674","EPOCH":"2021-09-12T22:00:00.999936","CENTER_NAME":"EARTH","SEMIMAJOR_AXIS":"6822.375","NORAD_CAT_ID":"48430","APOAPSIS":"445.284"},{"COUNTRY_CODE":"US","MEAN_MOTION_DOT":"-0.00864825","BSTAR":"-0.01139200000000","MEAN_MOTION":"15.60230557","TLE_LINE2":"2 48431  53.0479 313.9513 0001183  58.4568  24.8327 15.60230557  3681","TIME_SYSTEM":"UTC","CLASSIFICATION_TYPE":"U","REF_FRAME":"TEME","ELEMENT_SET_NO":"999","ECCENTRICITY":"0.00011830","EPOCH":"2021-09-12T22:00:00.999936","RA_OF_ASC_NODE":"313.9513","OBJECT_TYPE":"PAYLOAD","GP_ID":"184601155","APOAPSIS":"387.793","CENTER_NAME":"EARTH","SEMIMAJOR_AXIS":"6765.128","NORAD_CAT_ID":"48431","REV_AT_EPOCH":"368","OBJECT_NAME":"STARLINK-2700","SITE":"AFETR","PERIOD":"92.294","FILE":"3114195","MEAN_ELEMENT_THEORY":"SGP4","TLE_LINE1":"1 48431U 21040D   21255.91667824 -.00864825  00000-0 -11392-1 0  9997","RCS_SIZE":"LARGE","ARG_OF_PERICENTER":"58.4568","LAUNCH_DATE":"2021-05-09","MEAN_ANOMALY":"24.8327","OBJECT_ID":"2021-040D","MEAN_MOTION_DDOT":"0.0000000000000","INCLINATION":"53.0479","DECAY_DATE":null,"PERIAPSIS":"386.192","EPHEMERIS_TYPE":"0"},{"CLASSIFICATION_TYPE":"U","TIME_SYSTEM":"UTC","TLE_LINE2":"2 48432  53.0471 313.6547 0004373   4.9163 242.3666 15.73166473  3681","REF_FRAME":"TEME","ELEMENT_SET_NO":"999","MEAN_MOTION_DOT":"0.00025149","COUNTRY_CODE":"US","BSTAR":"0.00018324000000","MEAN_MOTION":"15.73166473","APOAPSIS":"352.798","CENTER_NAME":"EARTH","SEMIMAJOR_AXIS":"6727.991","NORAD_CAT_ID":"48432","ECCENTRICITY":"0.00043730","RA_OF_ASC_NODE":"313.6547","OBJECT_TYPE":"PAYLOAD","EPOCH":"2021-09-12T22:00:00.999936","GP_ID":"184601342","FILE":"3114195","TLE_LINE1":"1 48432U 21040E   21255.91667824  .00025149  00000-0  18324-3 0  9998","MEAN_ELEMENT_THEORY":"SGP4","RCS_SIZE":"LARGE","REV_AT_EPOCH":"368","OBJECT_NAME":"STARLINK-2680","SITE":"AFETR","PERIOD":"91.535","INCLINATION":"53.0471","DECAY_DATE":null,"PERIAPSIS":"346.914","EPHEMERIS_TYPE":"0","MEAN_ANOMALY":"242.3666","LAUNCH_DATE":"2021-05-09","ARG_OF_PERICENTER":"4.9163","OBJECT_ID":"2021-040E","MEAN_MOTION_DDOT":"0.0000000000000"},{"TLE_LINE2":"2 48433  53.0477 314.0085 0001098  63.3428 344.2746 15.58831549 20578","TIME_SYSTEM":"UTC","CLASSIFICATION_TYPE":"U","ELEMENT_SET_NO":"999","REF_FRAME":"TEME","COUNTRY_CODE":"US","MEAN_MOTION_DOT":"-0.00864080","MEAN_MOTION":"15.58831549","BSTAR":"-0.01200900000000","APOAPSIS":"391.783","NORAD_CAT_ID":"48433","SEMIMAJOR_AXIS":"6769.175","CENTER_NAME":"EARTH","EPOCH":"2021-09-12T22:00:00.999936","OBJECT_TYPE":"PAYLOAD","RA_OF_ASC_NODE":"314.0085","ECCENTRICITY":"0.00010980","GP_ID":"184577859","FILE":"3114143","RCS_SIZE":"LARGE","TLE_LINE1":"1 48433U 21040F   21255.91667824 -.00864080  00000-0 -12009-1 0  9998","MEAN_ELEMENT_THEORY":"SGP4","OBJECT_NAME":"STARLINK-2699","REV_AT_EPOCH":"2057","SITE":"AFETR","PERIOD":"92.377","INCLINATION":"53.0477","PERIAPSIS":"390.296","EPHEMERIS_TYPE":"0","DECAY_DATE":null,"ARG_OF_PERICENTER":"63.3428","LAUNCH_DATE":"2021-05-09","MEAN_ANOMALY":"344.2746","MEAN_MOTION_DDOT":"0.0000000000000","OBJECT_ID":"2021-040F"},{"TIME_SYSTEM":"UTC","TLE_LINE2":"2 48434  53.0472 315.7691 0001729  43.7448 250.6790 15.40575503  3666","CLASSIFICATION_TYPE":"U","REF_FRAME":"TEME","ELEMENT_SET_NO":"999","MEAN_MOTION_DOT":"-0.00800757","COUNTRY_CODE":"US","BSTAR":"-0.02117300000000","MEAN_MOTION":"15.40575503","APOAPSIS":"445.591","CENTER_NAME":"EARTH","NORAD_CAT_ID":"48434","SEMIMAJOR_AXIS":"6822.547","ECCENTRICITY":"0.00017290","EPOCH":"2021-09-12T22:00:00.999936","OBJECT_TYPE":"PAYLOAD","RA_OF_ASC_NODE":"315.7691","GP_ID":"184601465","FILE":"3114195","TLE_LINE1":"1 48434U 21040G   21255.91667824 -.00800757  00000-0 -21173-1 0  9992","MEAN_ELEMENT_THEORY":"SGP4","RCS_SIZE":"LARGE","REV_AT_EPOCH":"366","OBJECT_NAME":"STARLINK-2692","PERIOD":"93.472","SITE":"AFETR","INCLINATION":"53.0472","DECAY_DATE":null,"PERIAPSIS":"443.232","EPHEMERIS_TYPE":"0","ARG_OF_PERICENTER":"43.7448","LAUNCH_DATE":"2021-05-09","MEAN_ANOMALY":"250.6790","OBJECT_ID":"2021-040G","MEAN_MOTION_DDOT":"0.0000000000000"},{"TLE_LINE1":"1 48435U 21040H   21255.91667824 -.00015331  00000-0 -10580-2 0  9990","MEAN_ELEMENT_THEORY":"SGP4","RCS_SIZE":"LARGE","FILE":"3114195","SITE":"AFETR","PERIOD":"95.695","REV_AT_EPOCH":"363","OBJECT_NAME":"STARLINK-2633","DECAY_DATE":null,"PERIAPSIS":"551.249","EPHEMERIS_TYPE":"0","INCLINATION":"53.0504","OBJECT_ID":"2021-040H","MEAN_MOTION_DDOT":"0.0000000000000","MEAN_ANOMALY":"245.5372","LAUNCH_DATE":"2021-05-09","ARG_OF_PERICENTER":"78.3730","REF_FRAME":"TEME","ELEMENT_SET_NO":"999","CLASSIFICATION_TYPE":"U","TLE_LINE2":"2 48435  53.0504 321.1539 0001354  78.3730 245.5372 15.04778648  3638","TIME_SYSTEM":"UTC","BSTAR":"-0.00105800000000","MEAN_MOTION":"15.04778648","MEAN_MOTION_DOT":"-0.00015331","COUNTRY_CODE":"US","CENTER_NAME":"EARTH","SEMIMAJOR_AXIS":"6930.322","NORAD_CAT_ID":"48435","APOAPSIS":"553.126","GP_ID":"184601479","ECCENTRICITY":"0.00013540","OBJECT_TYPE":"PAYLOAD","RA_OF_ASC_NODE":"321.1539","EPOCH":"2021-09-12T22:00:00.999936"}];
